#aV2021 11 22  0  0  0.00000000     288 DD+AD WGS84 FIT  NGA
## 2185  86400.00000000   300.00000000 59540 0.0000000000000
+   32     1  2  3  4  5  6  7  8  9 10 11 12 13 14 15 16 17
+         18 19 20 21 22 23 24 25 26 27 28 29 30 31 32  0  0
+          0  0  0  0  0  0  0  0  0  0  0  0  0  0  0  0  0
+          0  0  0  0  0  0  0  0  0  0  0  0  0  0  0  0  0
+          0  0  0  0  0  0  0  0  0  0  0  0  0  0  0  0  0
++         2  2  2  2  2  2  2  2  2  2  2  2  2  2  2  2  2
++         2  2  2  2  2  2  2  2  2  2  2  2  2  2  2  0  0
++         0  0  0  0  0  0  0  0  0  0  0  0  0  0  0  0  0
++         0  0  0  0  0  0  0  0  0  0  0  0  0  0  0  0  0
++         0  0  0  0  0  0  0  0  0  0  0  0  0  0  0  0  0
%c cc cc ccc ccc cccc cccc cccc cccc ccccc ccccc ccccc ccccc
%c cc cc ccc ccc cccc cccc cccc cccc ccccc ccccc ccccc ccccc
%f  0.0000000  0.000000000  0.00000000000  0.000000000000000
%f  0.0000000  0.000000000  0.00000000000  0.000000000000000
%i    0    0    0    0      0      0      0      0         0
%i    0    0    0    0      0      0      0      0         0
/*      NGA, ST. LOUIS,MO.                                  
/*   EPHEMERIS COMPUTED FROM 2 DAYS OF DATA                 
/*   EPOCHA v7 SMOOTHER                                     
/*   G2139 IERS2010 SATIGS SATAPC                           
*  2021 11 22 21 15  0.00000000
P  1 -19501.322120 -13922.998074 -12094.637253    503.572485                    
V  1  14567.146248   2764.439072 -26964.505374     -0.104075                    
P  2  -2257.923671  15282.141153  22269.155567   -643.051409                    
V  2 -26215.692182  -4996.471996    885.581478     -0.014881                    
P  3 -12727.783559 -20939.663735  10269.509584    -20.413816                    
V  3  -1256.582232 -13258.501598 -28202.882105     -0.101900                    
P  4 -11115.510532 -10443.237966  21746.789749   -201.191042                    
V  4  20235.042146 -18787.858140   1248.046905      0.009896                    
P  5   5089.516142  25693.476381   3707.432517    -61.965654                    
V  5  -4303.778877  -3848.368787  31337.545001     -0.012983                    
P  6 -17834.600358   7586.682373  18253.757055    124.374248                    
V  6 -21826.799168  -7211.809812 -18336.967344      0.093860                    
P  7 -26085.849422  -5729.952539  -2182.882523    281.649140                    
V  7  -2330.912067  -3468.798727  31066.398868      0.051269                    
P  8   -978.889823 -18126.164798 -19284.826939    -45.227369                    
V  8  18149.490082 -16605.626783  15014.362494     -0.015473                    
P  9 -19138.730488    978.305341  18327.881373   -361.482887                    
V  9  15204.683930 -17910.656954  16735.860412      0.003984                    
P 10  13339.786608  -7321.120695 -21615.972166   -252.093163                    
V 10   7571.176680  26697.626288  -4629.738500     -0.085866                    
P 11  -4998.286730  14352.493846  21776.122113     17.995358                    
V 11 -26205.030433  -8863.601344   -187.685058     -0.021006                    
P 12  10303.972914  22868.853668   8682.697320   -130.206009                    
V 12   -108.307214  11545.013940 -29287.668848     -0.055606                    
P 13  -7829.328709  19723.338597 -16028.719255    218.574883                    
V 13 -17160.576913  10656.844077  21852.101948      0.057194                    
P 14 -13997.758570   7024.331751 -21446.955101    -42.974625                    
V 14  -6260.701033 -26531.791602  -4660.202042     -0.066851                    
P 15   4075.254051  18092.841857 -19300.704049   -104.515717                    
V 15 -16198.205904  17644.825625  13733.447721      0.028227                    
P 16     -6.919452 -25521.899726   6165.199877   -428.613798                    
V 16   4124.949141   7673.167857  30981.034767     -0.063919                    
P 17 -22060.732802  12239.664859  -7902.453113    537.434171                    
V 17   6595.721552  -8581.461166 -30013.655141      0.054169                    
P 18  25868.475571   4882.648796  -3918.216178    291.450419                    
V 18   4061.567588   3708.828008  31382.160679     -0.060477                    
P 19 -20787.395576  16381.335181   -221.083637     82.733346                    
V 19  -1514.464936  -1840.784889 -32268.208644      0.049943                    
P 20  -1274.881209  22690.377226  13939.756780    517.989784                    
V 20  -9259.190951 -15258.459359  23695.999124     -0.001929                    
P 21 -12819.026231 -14927.150536 -17419.583859    151.774473                    
V 21  23154.917611   2902.300140 -18235.616091      0.010945                    
P 22 -10865.698551 -24281.875793   2141.870699   -458.515313                    
V 22   2244.375049  -3532.333823 -30938.265196      0.090537                    
P 23  16221.175038   5417.953856 -20364.794522     29.932947                    
V 23   6316.413654  25002.636129  11610.282590     -0.043432                    
P 24  16377.624841  14768.844695 -15368.607995    269.565196                    
V 24 -19002.376789  -1474.661625 -21658.778800      0.034717                    
P 25  15600.565954  13679.203576  16470.227452    244.705763                    
V 25   3770.253258  21056.381248 -20451.878383      0.058990                    
P 26   7738.350321 -18143.439140  17581.892632    157.964763                    
V 26   8881.653458  20931.561991  17919.631210      0.037600                    
P 27   8971.601532 -21269.816322 -12971.686311   -222.407428                    
V 27  13101.095111  -9930.705391  26073.582304     -0.046052                    
P 28 -10559.974231  14972.751235 -18770.907067    457.588183                    
V 28  -5280.464756 -24343.577231 -15786.371914     -0.074998                    
P 29  16489.817682   3869.908639  20433.895610   -444.228815                    
V 29 -19261.980128  17424.704164  12157.161495     -0.051928                    
P 30 -23583.734477   2322.038894 -12161.638606   -493.557074                    
V 30 -14075.349941  -7101.259608  25556.010268     -0.031374                    
P 31  16410.793195  -9011.396331  18904.167829   -151.481481                    
V 31  22719.136803   8127.897448 -15289.864494     -0.019096                    
P 32  20673.016144 -15690.290645  -5055.446745    -25.378264                    
V 32  -2518.950380   6810.946003 -30916.445794     -0.049236                    
EOF
